{"type": "FeatureCollection", "features": [ {"type": "Feature", "properties": {"norad_id": 66605, "name": "STARLINK-36052", "group": "last-30-days", "lat": 35.72736933416708, "lon": -124.49455720165439, "alt_km": 438.64649533172815, "timestamp": "2025-12-27T16:33:28.970923+00:00", "meta": {"OBJECT_NAME": "STARLINK-36052", "OBJECT_ID": "2025-270T", "EPOCH": "2025-12-27T00:28:37.938720", "MEAN_MOTION": 15.40732543, "ECCENTRICITY": 0.00010337, "INCLINATION": 42.9984, "RA_OF_ASC_NODE": 109.8967, "ARG_OF_PERICENTER": 271.8255, "MEAN_ANOMALY": 88.2483, "EPHEMERIS_TYPE": 0, "CLASSIFICATION_TYPE": "U", "NORAD_CAT_ID": 66605, "ELEMENT_SET_NO": 999, "REV_AT_EPOCH": 655, "BSTAR": 0.0014674597, "MEAN_MOTION_DOT": 0.00061558, "MEAN_MOTION_DDOT": 0}, "tle": {"line1": "1 66605U 25270T   25361.01988355  .00061558  00000+0  14675-2 0  9994", "line2": "2 66605  42.9984 109.8967 0001033 271.8255  88.2483 15.40732543  6551"}}, "geometry": {"type": "Point", "coordinates": [-124.49455720165439, 35.72736933416708]}}, {"type": "Feature", "properties": {"norad_id": 66606, "name": "STARLINK-36063", "group": "last-30-days", "lat": -18.708806538910054, "lon": -52.86647111677424, "alt_km": 445.6599765003548, "timestamp": "2025-12-27T16:33:28.970934+00:00", "meta": {"OBJECT_NAME": "STARLINK-36063", "OBJECT_ID": "2025-270U", "EPOCH": "2025-12-27T07:52:48.880128", "MEAN_MOTION": 15.40724102, "ECCENTRICITY": 0.0001358, "INCLINATION": 42.9989, "RA_OF_ASC_NODE": 107.9067, "ARG_OF_PERICENTER": 296.146, "MEAN_ANOMALY": 63.9257, "EPHEMERIS_TYPE": 0, "CLASSIFICATION_TYPE": "U", "NORAD_CAT_ID": 66606, "ELEMENT_SET_NO": 999, "REV_AT_EPOCH": 660, "BSTAR": 0.001754, "MEAN_MOTION_DOT": 0.00073736, "MEAN_MOTION_DDOT": 0}, "tle": {"line1": "1 66606U 25270U   25361.32834352  .00073736  00000+0  17540-2 0  9991", "line2": "2 66606  42.9989 107.9067 0001358 296.1460  63.9257 15.40724102  6602"}}, "geometry": {"type": "Point", "coordinates": [-52.86647111677424, -18.708806538910054]}}, {"type": "Feature", "properties": {"norad_id": 66607, "name": "STARLINK-35993", "group": "last-30-days", "lat": 29.65590256735612, "lon": -111.66507596703131, "alt_km": 439.0760199085862, "timestamp": "2025-12-27T16:33:28.970944+00:00", "meta": {"OBJECT_NAME": "STARLINK-35993", "OBJECT_ID": "2025-270V", "EPOCH": "2025-12-27T00:25:24.794112", "MEAN_MOTION": 15.40714883, "ECCENTRICITY": 4.801e-05, "INCLINATION": 42.9959, "RA_OF_ASC_NODE": 109.8792, "ARG_OF_PERICENTER": 40.5095, "MEAN_ANOMALY": 319.5797, "EPHEMERIS_TYPE": 0, "CLASSIFICATION_TYPE": "U", "NORAD_CAT_ID": 66607, "ELEMENT_SET_NO": 999, "REV_AT_EPOCH": 645, "BSTAR": 0.0011935754, "MEAN_MOTION_DOT": 0.00049906, "MEAN_MOTION_DDOT": 0}, "tle": {"line1": "1 66607U 25270V   25361.01764808  .00049906  00000+0  11936-2 0  9991", "line2": "2 66607  42.9959 109.8792 0000480  40.5095 319.5797 15.40714883  6453"}}, "geometry": {"type": "Point", "coordinates": [-111.66507596703131, 29.65590256735612]}}, {"type": "Feature", "properties": {"norad_id": 66608, "name": "STARLINK-36036", "group": "last-30-days", "lat": -26.274506085956553, "lon": -42.2186271160169, "alt_km": 445.36635511631266, "timestamp": "2025-12-27T16:33:28.970954+00:00", "meta": {"OBJECT_NAME": "STARLINK-36036", "OBJECT_ID": "2025-270W", "EPOCH": "2025-12-27T07:49:34.996800", "MEAN_MOTION": 15.40755893, "ECCENTRICITY": 0.000432, "INCLINATION": 42.9996, "RA_OF_ASC_NODE": 107.8876, "ARG_OF_PERICENTER": 291.6857, "MEAN_ANOMALY": 68.3539, "EPHEMERIS_TYPE": 0, "CLASSIFICATION_TYPE": "U", "NORAD_CAT_ID": 66608, "ELEMENT_SET_NO": 999, "REV_AT_EPOCH": 644, "BSTAR": 0.0014632, "MEAN_MOTION_DOT": 0.0006144, "MEAN_MOTION_DDOT": 0}, "tle": {"line1": "1 66608U 25270W   25361.32609950  .00061440  00000+0  14632-2 0  9995", "line2": "2 66608  42.9996 107.8876 0004320 291.6857  68.3539 15.40755893  6446"}}, "geometry": {"type": "Point", "coordinates": [-42.2186271160169, -26.274506085956553]}}, {"type": "Feature", "properties": {"norad_id": 66609, "name": "STARLINK-36034", "group": "last-30-days", "lat": -38.31783860586992, "lon": -16.256186418822015, "alt_km": 447.030824634081, "timestamp": "2025-12-27T16:33:28.970964+00:00", "meta": {"OBJECT_NAME": "STARLINK-36034", "OBJECT_ID": "2025-270X", "EPOCH": "2025-12-27T07:43:08.059584", "MEAN_MOTION": 15.40754319, "ECCENTRICITY": 0.0001217, "INCLINATION": 42.995, "RA_OF_ASC_NODE": 107.8509, "ARG_OF_PERICENTER": 145.2618, "MEAN_ANOMALY": 214.8318, "EPHEMERIS_TYPE": 0, "CLASSIFICATION_TYPE": "U", "NORAD_CAT_ID": 66609, "ELEMENT_SET_NO": 999, "REV_AT_EPOCH": 644, "BSTAR": 0.0014016, "MEAN_MOTION_DOT": 0.00058804, "MEAN_MOTION_DDOT": 0}, "tle": {"line1": "1 66609U 25270X   25361.32162106  .00058804  00000+0  14016-2 0  9999", "line2": "2 66609  42.9950 107.8509 0001217 145.2618 214.8318 15.40754319  6446"}}, "geometry": {"type": "Point", "coordinates": [-16.256186418822015, -38.31783860586992]}}, {"type": "Feature", "properties": {"norad_id": 66610, "name": "STARLINK-35680", "group": "last-30-days", "lat": 14.42466712949879, "lon": -90.08726026033588, "alt_km": 441.9158190755352, "timestamp": "2025-12-27T16:33:28.970974+00:00", "meta": {"OBJECT_NAME": "STARLINK-35680", "OBJECT_ID": "2025-270Y", "EPOCH": "2025-12-26T14:58:49.990080", "MEAN_MOTION": 15.40709304, "ECCENTRICITY": 0.000156, "INCLINATION": 42.9985, "RA_OF_ASC_NODE": 112.0805, "ARG_OF_PERICENTER": 278.6419, "MEAN_ANOMALY": 81.4261, "EPHEMERIS_TYPE": 0, "CLASSIFICATION_TYPE": "U", "NORAD_CAT_ID": 66610, "ELEMENT_SET_NO": 999, "REV_AT_EPOCH": 660, "BSTAR": 0.0016797, "MEAN_MOTION_DOT": 0.00070534, "MEAN_MOTION_DDOT": 0}, "tle": {"line1": "1 66610U 25270Y   25360.62418970  .00070534  00000+0  16797-2 0  9998", "line2": "2 66610  42.9985 112.0805 0001560 278.6419  81.4261 15.40709304  6601"}}, "geometry": {"type": "Point", "coordinates": [-90.08726026033588, 14.42466712949879]}}, {"type": "Feature", "properties": {"norad_id": 66611, "name": "STARLINK-35583", "group": "last-30-days", "lat": -2.2045712454419473, "lon": -71.74941400499387, "alt_km": 444.09279956740284, "timestamp": "2025-12-27T16:33:28.970984+00:00", "meta": {"OBJECT_NAME": "STARLINK-35583", "OBJECT_ID": "2025-270Z", "EPOCH": "2025-12-27T07:59:15.633312", "MEAN_MOTION": 15.40742598, "ECCENTRICITY": 9.71e-05, "INCLINATION": 42.9992, "RA_OF_ASC_NODE": 107.9414, "ARG_OF_PERICENTER": 289.317, "MEAN_ANOMALY": 70.7581, "EPHEMERIS_TYPE": 0, "CLASSIFICATION_TYPE": "U", "NORAD_CAT_ID": 66611, "ELEMENT_SET_NO": 999, "REV_AT_EPOCH": 671, "BSTAR": 0.0010321, "MEAN_MOTION_DOT": 0.00043114, "MEAN_MOTION_DDOT": 0}, "tle": {"line1": "1 66611U 25270Z   25361.33281983  .00043114  00000+0  10321-2 0  9991", "line2": "2 66611  42.9992 107.9414 0000971 289.3170  70.7581 15.40742598  6717"}}, "geometry": {"type": "Point", "coordinates": [-71.74941400499387, -2.2045712454419473]}}, {"type": "Feature", "properties": {"norad_id": 66612, "name": "STARLINK-36039", "group": "last-30-days", "lat": -38.16300302122033, "lon": 48.98408245693052, "alt_km": 445.55509802084725, "timestamp": "2025-12-27T16:33:28.970994+00:00", "meta": {"OBJECT_NAME": "STARLINK-36039", "OBJECT_ID": "2025-270AA", "EPOCH": "2025-12-26T08:10:07.769280", "MEAN_MOTION": 15.4077388, "ECCENTRICITY": 0.0001563, "INCLINATION": 42.9999, "RA_OF_ASC_NODE": 114.2604, "ARG_OF_PERICENTER": 261.7567, "MEAN_ANOMALY": 98.3112, "EPHEMERIS_TYPE": 0, "CLASSIFICATION_TYPE": "U", "NORAD_CAT_ID": 66612, "ELEMENT_SET_NO": 999, "REV_AT_EPOCH": 644, "BSTAR": 0.0014141, "MEAN_MOTION_DOT": 0.00059376, "MEAN_MOTION_DDOT": 0}, "tle": {"line1": "1 66612U 25270AA  25360.34036770  .00059376  00000+0  14141-2 0  9995", "line2": "2 66612  42.9999 114.2604 0001563 261.7567  98.3112 15.40773880  6443"}}, "geometry": {"type": "Point", "coordinates": [48.98408245693052, -38.16300302122033]}}, {"type": "Feature", "properties": {"norad_id": 66613, "name": "STARLINK-36037", "group": "last-30-days", "lat": -26.311038957466423, "lon": 74.38416811023272, "alt_km": 443.4028299021229, "timestamp": "2025-12-27T16:33:28.971004+00:00", "meta": {"OBJECT_NAME": "STARLINK-36037", "OBJECT_ID": "2025-270AB", "EPOCH": "2025-12-26T15:50:25.954368", "MEAN_MOTION": 15.4073953, "ECCENTRICITY": 0.00043437, "INCLINATION": 43.0056, "RA_OF_ASC_NODE": 112.3618, "ARG_OF_PERICENTER": 287.9955, "MEAN_ANOMALY": 72.0428, "EPHEMERIS_TYPE": 0, "CLASSIFICATION_TYPE": "U", "NORAD_CAT_ID": 66613, "ELEMENT_SET_NO": 999, "REV_AT_EPOCH": 649, "BSTAR": 0.0011730413, "MEAN_MOTION_DOT": 0.00049089, "MEAN_MOTION_DDOT": 0}, "tle": {"line1": "1 66613U 25270AB  25360.66002262  .00049089  00000+0  11730-2 0  9991", "line2": "2 66613  43.0056 112.3618 0004343 287.9955  72.0428 15.40739530  6492"}}, "geometry": {"type": "Point", "coordinates": [74.38416811023272, -26.311038957466423]}}, {"type": "Feature", "properties": {"norad_id": 66614, "name": "STARLINK-36040", "group": "last-30-days", "lat": 40.16792594243633, "lon": 171.08668609416785, "alt_km": 438.4365645557218, "timestamp": "2025-12-27T16:33:28.971014+00:00", "meta": {"OBJECT_NAME": "STARLINK-36040", "OBJECT_ID": "2025-270AC", "EPOCH": "2025-12-27T08:28:17.896224", "MEAN_MOTION": 15.40708654, "ECCENTRICITY": 0.0001494, "INCLINATION": 43.0001, "RA_OF_ASC_NODE": 108.0932, "ARG_OF_PERICENTER": 275.8958, "MEAN_ANOMALY": 84.1728, "EPHEMERIS_TYPE": 0, "CLASSIFICATION_TYPE": "U", "NORAD_CAT_ID": 66614, "ELEMENT_SET_NO": 999, "REV_AT_EPOCH": 644, "BSTAR": 0.0011751, "MEAN_MOTION_DOT": 0.00049115, "MEAN_MOTION_DDOT": 0}, "tle": {"line1": "1 66614U 25270AC  25361.35298491  .00049115  00000+0  11751-2 0  9993", "line2": "2 66614  43.0001 108.0932 0001494 275.8958  84.1728 15.40708654  6442"}}, "geometry": {"type": "Point", "coordinates": [171.08668609416785, 40.16792594243633]}}]}